[{"OBJECT_NAME":"GAOFEN-9 05","OBJECT_ID":"2020-058A","EPOCH":"2026-03-10T00:01:50.876256","MEAN_MOTION":15.30293976,"ECCENTRICITY":0.0010522,"INCLINATION":97.2228,"RA_OF_ASC_NODE":111.963,"ARG_OF_PERICENTER":91.0204,"MEAN_ANOMALY":269.2242,"EPHEMERIS_TYPE":0,"CLASSIFICATION_TYPE":"U","NORAD_CAT_ID":46232,"ELEMENT_SET_NO":999,"REV_AT_EPOCH":30843,"BSTAR":0.00025120304,"MEAN_MOTION_DOT":7.299e-5,"MEAN_MOTION_DDOT":0},{"OBJECT_NAME":"STARLINK-34493","OBJECT_ID":"2025-133A","EPOCH":"2026-03-09T13:10:09.927264","MEAN_MOTION":15.3019727,"ECCENTRICITY":0.000123,"INCLINATION":53.1574,"RA_OF_ASC_NODE":117.6824,"ARG_OF_PERICENTER":79.1032,"MEAN_ANOMALY":281.0107,"EPHEMERIS_TYPE":0,"CLASSIFICATION_TYPE":"U","NORAD_CAT_ID":64472,"ELEMENT_SET_NO":999,"REV_AT_EPOCH":4116,"BSTAR":0.0012723,"MEAN_MOTION_DOT":0.0003751,"MEAN_MOTION_DDOT":0}]
